     2.100          NAVIGATION                              RINEX VERSION / TYPE
fic2rin                                 04/01/2013 00:23:06 PGM / RUN BY / DATE
                                                            END OF HEADER
14 13  3 31  2  0  0.0  .221059657633D-03  .000000000000D+00  .000000000000D+00
     .100000000000D+03  .105500000000D+03  .437018203562D-08  .162183307229D+01
     .547990202904D-05  .672075815964D-02  .382587313652D-05  .515372665787D+04
     .720000000000D+04 -.145286321640D-06  .170380970862D+01 -.130385160446D-06
     .974576985992D+00  .309562500000D+03 -.202633377015D+01 -.832927551919D-08
     .358229207399D-09  .100000000000D+01  .173400000000D+04  .000000000000D+00
     .340000000000D+01  .000000000000D+00 -.884756445885D-08  .100000000000D+03
     .600000000000D+01  .400000000000D+01
16 13  3 31  2  0  0.0 -.252613797784D-03  .000000000000D+00  .000000000000D+00
     .300000000000D+02 -.817187500000D+02  .379444376810D-08  .282838796539D+01
    -.411458313465D-05  .708814687096D-02  .118240714073D-04  .515362035942D+04
     .720000000000D+04 -.134110450745D-06 -.250658218055D+01  .186264514923D-08
     .984292716497D+00  .165031250000D+03  .561702727916D-01 -.753852829568D-08
     .208937274505D-09  .100000000000D+01  .173400000000D+04  .000000000000D+00
     .240000000000D+01  .000000000000D+00 -.977888703346D-08  .300000000000D+02
     .600000000000D+01  .400000000000D+01
17 13  3 31  2  0  0.0  .348626635969D-04 -.386535248253D-11  .000000000000D+00
     .970000000000D+02  .118125000000D+02  .470733893670D-08  .177128596092D+01
     .508502125740D-06  .828894972801D-02  .732764601707D-05  .515360249519D+04
     .720000000000D+04 -.245869159698D-06 -.146902981307D+01 -.115483999252D-06
     .964623788773D+00  .243625000000D+03 -.220345022753D+01 -.813891044686D-08
     .353943314588D-09  .100000000000D+01  .173400000000D+04  .000000000000D+00
     .340000000000D+01  .000000000000D+00 -.102445483208D-07  .970000000000D+02
     .600000000000D+01  .400000000000D+01
18 13  3 31  2  0  0.0  .246497336775D-03  .193267624127D-11  .000000000000D+00
     .990000000000D+02  .679062500000D+02  .470198157069D-08 -.302101586167D+01
     .335648655891D-05  .139443533262D-01  .123325735331D-04  .515377976418D+04
     .720000000000D+04  .106170773506D-06  .587653082087D+00 -.175088644028D-06
     .927982044531D+00  .121156250000D+03 -.211963222646D+01 -.784496963162D-08
    -.182864759908D-09  .100000000000D+01  .173400000000D+04  .000000000000D+00
     .240000000000D+01  .000000000000D+00 -.107102096081D-07  .990000000000D+02
     .600000000000D+01  .400000000000D+01
20 13  3 31  2  0  0.0  .906456261873D-04  .181898940355D-11  .000000000000D+00
     .810000000000D+02  .434687500000D+02  .482841540860D-08 -.245216658583D+01
     .232644379139D-05  .550888723228D-02  .121444463730D-04  .515378017616D+04
     .720000000000D+04 -.111758708954D-07  .534169110173D+00 -.108033418655D-06
     .928720619204D+00  .128062500000D+03  .129471436397D+01 -.801854829044D-08
    -.305369862738D-09  .100000000000D+01  .173400000000D+04  .000000000000D+00
     .240000000000D+01  .000000000000D+00 -.791624188423D-08  .810000000000D+02
     .600000000000D+01  .400000000000D+01
21 13  3 31  2  0  0.0 -.289144460112D-03 -.216004991671D-11  .000000000000D+00
     .960000000000D+02 -.367500000000D+02  .530522098375D-08 -.192003231424D+01
    -.201351940632D-05  .201463301200D-01  .639818608761D-05  .515370383835D+04
     .720000000000D+04  .275671482086D-06 -.460080049758D+00 -.124797224998D-06
     .931762951918D+00  .234375000000D+03 -.215695635030D+01 -.814569644381D-08
    -.326085011321D-09  .100000000000D+01  .173400000000D+04  .000000000000D+00
     .240000000000D+01  .000000000000D+00 -.111758708954D-07  .960000000000D+02
     .600000000000D+01  .400000000000D+01
22 13  3 31  2  0  0.0  .162813812494D-03  .102318153949D-11  .000000000000D+00
     .210000000000D+02  .694062500000D+02  .485984528921D-08  .268563874233D+01
     .352598726749D-05  .636894942727D-02  .122413039207D-04  .515366067886D+04
     .720000000000D+04  .819563865662D-07  .590373126633D+00 -.745058059692D-07
     .925722427118D+00  .124093750000D+03 -.204124712278D+01 -.801854829044D-08
    -.213223167315D-09  .100000000000D+01  .173400000000D+04  .000000000000D+00
     .240000000000D+01  .000000000000D+00 -.172294676304D-07  .210000000000D+02
     .600000000000D+01  .400000000000D+01
23 13  3 31  2  0  0.0  .998522154987D-04 -.363797880709D-11  .000000000000D+00
     .940000000000D+02  .101156250000D+03  .474091176372D-08  .639764659829D+00
     .534765422344D-05  .829472998157D-02  .438839197159D-05  .515373453522D+04
     .720000000000D+04  .502914190292D-07  .164610427300D+01  .141561031342D-06
     .956150024515D+00  .291218750000D+03 -.291132044898D+01 -.846856703552D-08
     .273225666660D-09  .100000000000D+01  .173400000000D+04  .000000000000D+00
     .240000000000D+01  .000000000000D+00 -.200234353542D-07  .940000000000D+02
     .600000000000D+01  .400000000000D+01
24 13  3 31  2  0  0.0 -.362796708941D-05 -.682121026330D-12  .000000000000D+00
     .510000000000D+02 -.815000000000D+02  .483305845914D-08 -.218070733441D+00
    -.417791306973D-05  .850645941682D-03  .363029539585D-05  .515369039726D+04
     .720000000000D+04 -.242143869400D-07  .267290033780D+01 -.577419996262D-07
     .959227341452D+00  .309125000000D+03  .311600768223D+00 -.844856620241D-08
    -.195008122871D-09  .100000000000D+01  .173400000000D+04  .000000000000D+00
     .340000000000D+01  .000000000000D+00  .325962901115D-08  .510000000000D+02
     .600000000000D+01  .400000000000D+01
25 13  3 31  2  0  0.0  .827498733997D-04  .352429196937D-11  .000000000000D+00
     .190000000000D+02 -.758750000000D+02  .407766985132D-08 -.211685099829D+01
    -.396184623241D-05  .238721852656D-02  .119525939226D-04  .515357210732D+04
     .720000000000D+04  .409781932831D-07 -.256251703910D+01 -.391155481339D-07
     .972440572613D+00  .154250000000D+03  .570437118344D+00 -.777496671571D-08
     .191079387795D-09  .100000000000D+01  .173400000000D+04  .000000000000D+00
     .240000000000D+01  .000000000000D+00  .558793544769D-08  .190000000000D+02
     .600000000000D+01  .400000000000D+01
26 13  3 31  2  0  0.0 -.460292212665D-04  .148929757415D-10  .000000000000D+00
     .200000000000D+02  .814062500000D+02  .429589322691D-08  .564822103748D+00
     .423938035965D-05  .212880461477D-01  .444985926151D-05  .515366329765D+04
     .720000000000D+04 -.292435288429D-06  .172550066415D+01  .353902578354D-07
     .979341970575D+00  .305562500000D+03  .122845767332D+01 -.852714090393D-08
     .100004165575D-09  .100000000000D+01  .173400000000D+04  .000000000000D+00
     .240000000000D+01  .000000000000D+00 -.605359673500D-08  .200000000000D+02
     .600000000000D+01  .400000000000D+01
28 13  3 31  2  0  0.0  .245662871748D-03  .341060513165D-11  .000000000000D+00
     .860000000000D+02 -.676250000000D+02  .378908640209D-08  .257105554626D+01
    -.352226197720D-05  .186065417947D-01  .108908861876D-04  .515364688873D+04
     .720000000000D+04  .169500708580D-06 -.250026780333D+01 -.197440385818D-06
     .982718082678D+00  .177687500000D+03 -.177387117416D+01 -.732423365516D-08
     .122147945095D-09  .100000000000D+01  .173400000000D+04  .000000000000D+00
     .240000000000D+01  .000000000000D+00 -.107102096081D-07  .860000000000D+02
     .600000000000D+01  .400000000000D+01
29 13  3 31  2  0  0.0  .421878416091D-03  .363797880709D-11  .000000000000D+00
     .230000000000D+02  .195625000000D+02  .475555523082D-08 -.161864210418D+01
     .925734639168D-06  .197291816585D-02  .698678195477D-05  .515366708183D+04
     .720000000000D+04 -.856816768646D-07 -.146027058961D+01  .353902578354D-07
     .965244994991D+00  .244718750000D+03 -.108061935472D+01 -.814891086342D-08
     .383587406527D-09  .100000000000D+01  .173400000000D+04  .000000000000D+00
     .240000000000D+01  .000000000000D+00 -.977888703346D-08  .230000000000D+02
     .600000000000D+01  .400000000000D+01
31 13  3 31  2  0  0.0  .308699905872D-03  .147792889038D-11  .000000000000D+00
     .970000000000D+02 -.834062500000D+02  .439661170795D-08 -.103571251539D+01
    -.459142029285D-05  .798861146905D-02  .391341745853D-05  .515356527328D+04
     .720000000000D+04 -.949949026108D-07  .270472804289D+01 -.558793544769D-07
     .980705857878D+00  .316437500000D+03 -.750432772594D+00 -.836963434315D-08
    -.138934358602D-09  .100000000000D+01  .173400000000D+04  .000000000000D+00
     .240000000000D+01  .000000000000D+00 -.130385160446D-07  .970000000000D+02
     .600000000000D+01  .400000000000D+01
32 13  3 31  2  0  0.0 -.547047238797D-03 -.261479726760D-11  .000000000000D+00
     .150000000000D+02  .639687500000D+02  .448304387963D-08 -.461434913782D+00
     .328756868839D-05  .115873141913D-01  .119302421808D-04  .515373437500D+04
     .720000000000D+04  .931322574615D-07  .672726931034D+00 -.288709998131D-06
     .949865401592D+00  .146187500000D+03 -.379800345740D+00 -.807855078978D-08
    -.187864968187D-09  .100000000000D+01  .173400000000D+04  .000000000000D+00
     .240000000000D+01  .000000000000D+00 -.325962901115D-08  .150000000000D+02
     .600000000000D+01  .400000000000D+01
13 13  3 31  1 59 44.0  .133109744638D-03 -.352429196937D-11  .000000000000D+00
     .100000000000D+01  .835625000000D+02  .416945938901D-08  .150618440811D+01
     .432506203651D-05  .512980541680D-02  .420957803726D-05  .515377447319D+04
     .718400000000D+04  .763684511185D-07  .173267159307D+01 -.447034835815D-07
     .981874622631D+00  .307250000000D+03  .206806350104D+01 -.810890919719D-08
     .289297764699D-09  .100000000000D+01  .173400000000D+04  .000000000000D+00
     .240000000000D+01  .000000000000D+00 -.111758708954D-07  .100000000000D+01
     .270600000000D+04  .400000000000D+01
